{
  "type": "FeatureCollection",
  "features": [
    { "type": "Feature", "properties": { "name": "Sydney", "rank": 1 }, "geometry": { "type": "Point", "coordinates": [151.2093, -33.8688] } },
    { "type": "Feature", "properties": { "name": "Melbourne", "rank": 1 }, "geometry": { "type": "Point", "coordinates": [144.9631, -37.8136] } },
    { "type": "Feature", "properties": { "name": "Brisbane", "rank": 1 }, "geometry": { "type": "Point", "coordinates": [153.0251, -27.4698] } },
    { "type": "Feature", "properties": { "name": "Perth", "rank": 1 }, "geometry": { "type": "Point", "coordinates": [115.8605, -31.9505] } },
    { "type": "Feature", "properties": { "name": "Adelaide", "rank": 1 }, "geometry": { "type": "Point", "coordinates": [138.6007, -34.9285] } },
    { "type": "Feature", "properties": { "name": "Hobart", "rank": 2 }, "geometry": { "type": "Point", "coordinates": [147.3272, -42.8821] } },
    { "type": "Feature", "properties": { "name": "Darwin", "rank": 2 }, "geometry": { "type": "Point", "coordinates": [130.8456, -12.4634] } },
    { "type": "Feature", "properties": { "name": "Canberra", "rank": 2 }, "geometry": { "type": "Point", "coordinates": [149.1300, -35.2809] } },
    { "type": "Feature", "properties": { "name": "Cairns", "rank": 3 }, "geometry": { "type": "Point", "coordinates": [145.7781, -16.9186] } },
    { "type": "Feature", "properties": { "name": "Townsville", "rank": 3 }, "geometry": { "type": "Point", "coordinates": [146.7910, -19.2590] } },
    { "type": "Feature", "properties": { "name": "Gold Coast", "rank": 3 }, "geometry": { "type": "Point", "coordinates": [153.4000, -28.0167] } },
    { "type": "Feature", "properties": { "name": "Newcastle", "rank": 3 }, "geometry": { "type": "Point", "coordinates": [151.7817, -32.9283] } },
    { "type": "Feature", "properties": { "name": "Alice Springs", "rank": 3 }, "geometry": { "type": "Point", "coordinates": [133.8807, -23.6980] } },
    { "type": "Feature", "properties": { "name": "Broome", "rank": 3 }, "geometry": { "type": "Point", "coordinates": [122.2364, -17.9614] } },
    { "type": "Feature", "properties": { "name": "Rockhampton", "rank": 3 }, "geometry": { "type": "Point", "coordinates": [150.5100, -23.3791] } },
    { "type": "Feature", "properties": { "name": "Mackay", "rank": 3 }, "geometry": { "type": "Point", "coordinates": [149.1868, -21.1411] } },
    { "type": "Feature", "properties": { "name": "Bundaberg", "rank": 3 }, "geometry": { "type": "Point", "coordinates": [152.3479, -24.8661] } },
    { "type": "Feature", "properties": { "name": "Wollongong", "rank": 3 }, "geometry": { "type": "Point", "coordinates": [150.8931, -34.4278] } },
    { "type": "Feature", "properties": { "name": "Geelong", "rank": 3 }, "geometry": { "type": "Point", "coordinates": [144.3500, -38.1500] } },
    { "type": "Feature", "properties": { "name": "Katherine", "rank": 3 }, "geometry": { "type": "Point", "coordinates": [132.2716, -14.4524] } }
  ]
}
