{
  "type": "FeatureCollection",
  "features": [
    {
      "type": "Feature",
      "properties": { "name": "Australia", "type": "coastline" },
      "geometry": {
        "type": "Polygon",
        "coordinates": [[
          [129.00, -11.50], [131.00, -11.20], [132.50, -11.50], [134.00, -12.00],
          [136.00, -12.20], [136.70, -12.30], [137.00, -12.50], [138.00, -12.00],
          [139.50, -11.80], [141.00, -12.50], [142.00, -10.90], [142.50, -10.70],
          [143.00, -11.60], [143.50, -12.80], [144.00, -14.00], [144.50, -14.50],
          [145.00, -15.00], [145.50, -16.00], [146.00, -17.50], [146.50, -19.00],
          [147.50, -19.50], [148.50, -20.00], [149.00, -20.50], [149.50, -21.00],
          [150.00, -22.00], [150.50, -23.00], [151.00, -24.00], [152.00, -25.00],
          [153.00, -26.00], [153.50, -27.00], [153.50, -28.50], [153.30, -29.00],
          [153.50, -30.00], [153.20, -30.50], [153.00, -31.00], [152.50, -32.00],
          [151.50, -33.00], [151.20, -34.00], [150.80, -35.00], [150.20, -36.00],
          [150.00, -37.00], [149.50, -37.50], [148.50, -37.80], [148.00, -38.00],
          [147.50, -38.30], [146.50, -38.70], [146.00, -38.80], [145.50, -38.50],
          [145.00, -38.30], [144.80, -38.50], [144.50, -38.10], [143.50, -38.60],
          [142.00, -38.30], [141.50, -38.40], [140.50, -38.00], [139.50, -37.00],
          [139.00, -36.00], [138.50, -35.50], [138.00, -35.00], [137.50, -35.50],
          [137.00, -35.80], [136.50, -36.00], [136.00, -35.50], [135.50, -35.00],
          [135.00, -34.50], [134.50, -34.00], [134.00, -33.50], [133.50, -32.50],
          [132.50, -32.00], [131.50, -31.50], [130.50, -31.50], [129.00, -31.60],
          [128.00, -31.70], [127.00, -32.00], [126.00, -32.00], [125.00, -32.50],
          [124.00, -33.00], [123.00, -33.50], [122.00, -34.00], [121.00, -34.00],
          [119.50, -34.00], [118.50, -33.50], [117.50, -33.50], [116.50, -33.80],
          [115.50, -34.00], [115.00, -34.00], [114.80, -33.50], [114.50, -33.00],
          [115.00, -31.50], [115.00, -30.50], [114.80, -29.00], [114.50, -28.00],
          [114.00, -27.00], [113.50, -26.00], [113.20, -25.00], [113.50, -24.00],
          [113.80, -23.00], [114.00, -22.50], [114.50, -22.00], [115.00, -21.50],
          [116.00, -20.50], [117.00, -20.00], [118.50, -20.00], [119.50, -19.50],
          [121.00, -19.00], [122.00, -18.00], [123.00, -17.00], [124.00, -16.00],
          [125.00, -15.00], [126.00, -14.50], [127.00, -14.00], [128.00, -14.50],
          [128.50, -14.00], [129.00, -13.50], [129.50, -13.00], [129.50, -12.00],
          [129.00, -11.50]
        ]]
      }
    },
    {
      "type": "Feature",
      "properties": { "name": "Tasmania", "type": "coastline" },
      "geometry": {
        "type": "Polygon",
        "coordinates": [[
          [144.50, -40.50], [145.50, -40.80], [146.50, -41.00], [147.50, -41.00],
          [148.00, -41.50], [148.30, -42.00], [148.00, -42.50], [147.50, -43.00],
          [147.00, -43.30], [146.00, -43.50], [145.50, -43.00], [145.00, -42.50],
          [144.80, -41.50], [144.50, -41.00], [144.50, -40.50]
        ]]
      }
    }
  ]
}
